start=new Date('2022-05-30T00:00:00.000Z').valueOf();
sats=[{"PERIAPSIS":"546.109","TIME_SYSTEM":"UTC","LAUNCH_DATE":"2020-03-18","DECAY_DATE":null,"MEAN_MOTION_DOT":"0.00002197","ECCENTRICITY":"0.00016190","RCS_SIZE":"LARGE","MEAN_ELEMENT_THEORY":"SGP4","OBJECT_ID":"2020-019AT","MEAN_MOTION":"15.06394572","CLASSIFICATION_TYPE":"U","EPHEMERIS_TYPE":"0","ARG_OF_PERICENTER":"57.9091","REV_AT_EPOCH":"12198","TLE_LINE1":"1 45401U 20019AT  22149.87818991  .00002197  00000-0  16637-3 0  9990","NORAD_CAT_ID":"45401","REF_FRAME":"TEME","OBJECT_TYPE":"PAYLOAD","COUNTRY_CODE":"US","PERIOD":"95.592","MEAN_MOTION_DDOT":"0.0000000000000","ELEMENT_SET_NO":"999","TLE_LINE2":"2 45401  53.0547 210.8372 0001619  57.9091 302.2055 15.06394572121981","BSTAR":"0.00016637000000","EPOCH":"2022-05-29T21:04:35.608224","FILE":"3471362","GP_ID":"204887756","SITE":"AFETR","INCLINATION":"53.0547","SEMIMAJOR_AXIS":"6925.365","CENTER_NAME":"EARTH","RA_OF_ASC_NODE":"210.8372","APOAPSIS":"548.351","MEAN_ANOMALY":"302.2055","OBJECT_NAME":"STARLINK-1256"},{"PERIAPSIS":"546.204","TIME_SYSTEM":"UTC","LAUNCH_DATE":"2020-03-18","DECAY_DATE":null,"MEAN_MOTION_DOT":"-0.00000915","RCS_SIZE":"LARGE","ECCENTRICITY":"0.00014980","MEAN_ELEMENT_THEORY":"SGP4","OBJECT_ID":"2020-019AU","MEAN_MOTION":"15.06391012","CLASSIFICATION_TYPE":"U","EPHEMERIS_TYPE":"0","ARG_OF_PERICENTER":"61.3320","REV_AT_EPOCH":"12199","TLE_LINE1":"1 45402U 20019AU  22149.87449759 -.00000915  00000-0 -42542-4 0  9996","REF_FRAME":"TEME","NORAD_CAT_ID":"45402","PERIOD":"95.593","COUNTRY_CODE":"US","OBJECT_TYPE":"PAYLOAD","MEAN_MOTION_DDOT":"0.0000000000000","ELEMENT_SET_NO":"999","TLE_LINE2":"2 45402  53.0542 210.8442 0001498  61.3320 298.7819 15.06391012121998","EPOCH":"2022-05-29T20:59:16.591776","BSTAR":"-0.00004254200000","GP_ID":"204888006","FILE":"3471362","SITE":"AFETR","INCLINATION":"53.0542","CENTER_NAME":"EARTH","SEMIMAJOR_AXIS":"6925.376","RA_OF_ASC_NODE":"210.8442","APOAPSIS":"548.279","OBJECT_NAME":"STARLINK-1257","MEAN_ANOMALY":"298.7819"},{"MEAN_MOTION_DDOT":"0.0000000000000","COUNTRY_CODE":"US","OBJECT_TYPE":"PAYLOAD","PERIOD":"95.590","NORAD_CAT_ID":"45403","REF_FRAME":"TEME","ELEMENT_SET_NO":"999","EPOCH":"2022-05-29T21:20:25.207296","BSTAR":"0.00027649000000","TLE_LINE2":"2 45403  53.0533 210.7885 0005064 270.7593  89.2816 15.06440280121981","SITE":"AFETR","GP_ID":"204888253","FILE":"3471362","SEMIMAJOR_AXIS":"6925.225","CENTER_NAME":"EARTH","INCLINATION":"53.0533","OBJECT_NAME":"STARLINK-1259","MEAN_ANOMALY":"89.2816","APOAPSIS":"550.597","RA_OF_ASC_NODE":"210.7885","TIME_SYSTEM":"UTC","PERIAPSIS":"543.583","LAUNCH_DATE":"2020-03-18","MEAN_MOTION_DOT":"0.00003843","DECAY_DATE":null,"OBJECT_ID":"2020-019AV","MEAN_ELEMENT_THEORY":"SGP4","RCS_SIZE":"LARGE","ECCENTRICITY":"0.00050640","CLASSIFICATION_TYPE":"U","MEAN_MOTION":"15.06440280","EPHEMERIS_TYPE":"0","ARG_OF_PERICENTER":"270.7593","TLE_LINE1":"1 45403U 20019AV  22149.88918064  .00003843  00000-0  27649-3 0  9999","REV_AT_EPOCH":"12198"},{"CENTER_NAME":"EARTH","SEMIMAJOR_AXIS":"6925.380","INCLINATION":"53.0544","APOAPSIS":"548.319","OBJECT_NAME":"STARLINK-1260","MEAN_ANOMALY":"298.2619","RA_OF_ASC_NODE":"210.7343","REF_FRAME":"TEME","NORAD_CAT_ID":"45404","COUNTRY_CODE":"US","OBJECT_TYPE":"PAYLOAD","PERIOD":"95.593","MEAN_MOTION_DDOT":"0.0000000000000","ELEMENT_SET_NO":"999","EPOCH":"2022-05-29T21:36:26.321760","BSTAR":"-0.00003903200000","TLE_LINE2":"2 45404  53.0544 210.7343 0001551  61.8526 298.2619 15.06389663121895","FILE":"3471362","GP_ID":"204887006","SITE":"AFETR","CLASSIFICATION_TYPE":"U","MEAN_MOTION":"15.06389663","ARG_OF_PERICENTER":"61.8526","EPHEMERIS_TYPE":"0","TLE_LINE1":"1 45404U 20019AW  22149.90030465 -.00000863  00000-0 -39032-4 0  9994","REV_AT_EPOCH":"12189","PERIAPSIS":"546.171","TIME_SYSTEM":"UTC","LAUNCH_DATE":"2020-03-18","MEAN_MOTION_DOT":"-0.00000863","DECAY_DATE":null,"OBJECT_ID":"2020-019AW","RCS_SIZE":"LARGE","ECCENTRICITY":"0.00015510","MEAN_ELEMENT_THEORY":"SGP4"},{"LAUNCH_DATE":"2020-03-18","TIME_SYSTEM":"UTC","PERIAPSIS":"546.185","MEAN_ELEMENT_THEORY":"SGP4","RCS_SIZE":"LARGE","ECCENTRICITY":"0.00015330","OBJECT_ID":"2020-019AX","DECAY_DATE":null,"MEAN_MOTION_DOT":"0.00000150","MEAN_MOTION":"15.06389071","CLASSIFICATION_TYPE":"U","TLE_LINE1":"1 45405U 20019AX  22149.88555738  .00000150  00000-0  28971-4 0  9994","REV_AT_EPOCH":"12189","ARG_OF_PERICENTER":"68.2942","EPHEMERIS_TYPE":"0","ELEMENT_SET_NO":"999","COUNTRY_CODE":"US","OBJECT_TYPE":"PAYLOAD","MEAN_MOTION_DDOT":"0.0000000000000","PERIOD":"95.593","NORAD_CAT_ID":"45405","REF_FRAME":"TEME","SITE":"AFETR","FILE":"3471362","GP_ID":"204887256","TLE_LINE2":"2 45405  53.0554 210.7981 0001533  68.2942 291.8210 15.06389071121897","BSTAR":"0.00002897100000","EPOCH":"2022-05-29T21:15:12.157632","INCLINATION":"53.0554","CENTER_NAME":"EARTH","SEMIMAJOR_AXIS":"6925.382","RA_OF_ASC_NODE":"210.7981","MEAN_ANOMALY":"291.8210","OBJECT_NAME":"STARLINK-1263","APOAPSIS":"548.309"},{"COUNTRY_CODE":"US","OBJECT_TYPE":"PAYLOAD","MEAN_MOTION_DDOT":"0.0000000000000","PERIOD":"95.593","NORAD_CAT_ID":"45406","REF_FRAME":"TEME","ELEMENT_SET_NO":"999","TLE_LINE2":"2 45406  53.0548 210.7555 0002004  53.3777 306.7396 15.06392398121890","EPOCH":"2022-05-29T21:25:49.029312","BSTAR":"-0.00007170200000","SITE":"AFETR","FILE":"3471362","GP_ID":"204888507","INCLINATION":"53.0548","CENTER_NAME":"EARTH","SEMIMAJOR_AXIS":"6925.372","RA_OF_ASC_NODE":"210.7555","MEAN_ANOMALY":"306.7396","OBJECT_NAME":"STARLINK-1265","APOAPSIS":"548.625","TIME_SYSTEM":"UTC","PERIAPSIS":"545.849","LAUNCH_DATE":"2020-03-18","DECAY_DATE":null,"MEAN_MOTION_DOT":"-0.00001349","MEAN_ELEMENT_THEORY":"SGP4","RCS_SIZE":"LARGE","ECCENTRICITY":"0.00020040","OBJECT_ID":"2020-019AY","MEAN_MOTION":"15.06392398","CLASSIFICATION_TYPE":"U","EPHEMERIS_TYPE":"0","ARG_OF_PERICENTER":"53.3777","REV_AT_EPOCH":"12189","TLE_LINE1":"1 45406U 20019AY  22149.89292858 -.00001349  00000-0 -71702-4 0  9990"},{"SEMIMAJOR_AXIS":"6925.371","CENTER_NAME":"EARTH","INCLINATION":"53.0548","APOAPSIS":"548.380","OBJECT_NAME":"STARLINK-1275","MEAN_ANOMALY":"281.0071","RA_OF_ASC_NODE":"210.7096","NORAD_CAT_ID":"45407","REF_FRAME":"TEME","COUNTRY_CODE":"US","MEAN_MOTION_DDOT":"0.0000000000000","OBJECT_TYPE":"PAYLOAD","PERIOD":"95.593","ELEMENT_SET_NO":"999","EPOCH":"2022-05-29T21:45:40.723776","BSTAR":"-0.00002665600000","TLE_LINE2":"2 45407  53.0548 210.7096 0001653  79.1104 281.0071 15.06392793121894","FILE":"3471362","GP_ID":"204888754","SITE":"AFETR","CLASSIFICATION_TYPE":"U","MEAN_MOTION":"15.06392793","EPHEMERIS_TYPE":"0","ARG_OF_PERICENTER":"79.1104","REV_AT_EPOCH":"12189","TLE_LINE1":"1 45407U 20019AZ  22149.90672134 -.00000678  00000-0 -26656-4 0  9994","PERIAPSIS":"546.091","TIME_SYSTEM":"UTC","LAUNCH_DATE":"2020-03-18","MEAN_MOTION_DOT":"-0.00000678","DECAY_DATE":null,"OBJECT_ID":"2020-019AZ","RCS_SIZE":"LARGE","ECCENTRICITY":"0.00016530","MEAN_ELEMENT_THEORY":"SGP4"},{"ARG_OF_PERICENTER":"71.3806","EPHEMERIS_TYPE":"0","TLE_LINE1":"1 45408U 20019BA  22149.65426620  .00001762  00000-0  13716-3 0  9999","REV_AT_EPOCH":"12144","CLASSIFICATION_TYPE":"U","MEAN_MOTION":"15.06397403","MEAN_MOTION_DOT":"0.00001762","DECAY_DATE":null,"OBJECT_ID":"2020-019BA","RCS_SIZE":"LARGE","ECCENTRICITY":"0.00015850","MEAN_ELEMENT_THEORY":"SGP4","PERIAPSIS":"546.124","TIME_SYSTEM":"UTC","LAUNCH_DATE":"2020-03-18","APOAPSIS":"548.319","MEAN_ANOMALY":"288.7355","OBJECT_NAME":"STARLINK-1278","RA_OF_ASC_NODE":"241.8247","SEMIMAJOR_AXIS":"6925.357","CENTER_NAME":"EARTH","INCLINATION":"53.0552","BSTAR":"0.00013716000000","EPOCH":"2022-05-29T15:42:08.599680","TLE_LINE2":"2 45408  53.0552 241.8247 0001585  71.3806 288.7355 15.06397403121443","GP_ID":"204887507","FILE":"3471362","SITE":"AFETR","REF_FRAME":"TEME","NORAD_CAT_ID":"45408","COUNTRY_CODE":"US","PERIOD":"95.592","OBJECT_TYPE":"PAYLOAD","MEAN_MOTION_DDOT":"0.0000000000000","ELEMENT_SET_NO":"999"},{"TIME_SYSTEM":"UTC","PERIAPSIS":"546.004","LAUNCH_DATE":"2020-03-18","DECAY_DATE":null,"MEAN_MOTION_DOT":"0.00004605","MEAN_ELEMENT_THEORY":"SGP4","ECCENTRICITY":"0.00017200","RCS_SIZE":"LARGE","OBJECT_ID":"2020-019BB","MEAN_MOTION":"15.06405930","CLASSIFICATION_TYPE":"U","EPHEMERIS_TYPE":"0","ARG_OF_PERICENTER":"66.3472","REV_AT_EPOCH":"12183","TLE_LINE1":"1 45409U 20019BB  22149.45062068  .00004605  00000-0  32781-3 0  9992","MEAN_MOTION_DDOT":"0.0000000000000","COUNTRY_CODE":"US","OBJECT_TYPE":"PAYLOAD","PERIOD":"95.592","NORAD_CAT_ID":"45409","REF_FRAME":"TEME","ELEMENT_SET_NO":"999","TLE_LINE2":"2 45409  53.0527 212.7380 0001720  66.3472 293.7698 15.06405930121839","EPOCH":"2022-05-29T10:48:53.626752","BSTAR":"0.00032781000000","SITE":"AFETR","GP_ID":"204852392","FILE":"3470904","INCLINATION":"53.0527","CENTER_NAME":"EARTH","SEMIMAJOR_AXIS":"6925.330","RA_OF_ASC_NODE":"212.7380","MEAN_ANOMALY":"293.7698","OBJECT_NAME":"STARLINK-1282","APOAPSIS":"548.387"},{"RA_OF_ASC_NODE":"210.8878","OBJECT_NAME":"STARLINK-1293","MEAN_ANOMALY":"290.7543","APOAPSIS":"548.355","INCLINATION":"53.0541","SEMIMAJOR_AXIS":"6925.480","CENTER_NAME":"EARTH","SITE":"AFETR","GP_ID":"204888007","FILE":"3471362","TLE_LINE2":"2 45411  53.0541 210.8878 0001459  69.3602 290.7543 15.06357168121910","BSTAR":"0.00068040000000","EPOCH":"2022-05-29T20:43:23.512512","ELEMENT_SET_NO":"999","MEAN_MOTION_DDOT":"0.0000000000000","COUNTRY_CODE":"US","OBJECT_TYPE":"PAYLOAD","PERIOD":"95.595","NORAD_CAT_ID":"45411","REF_FRAME":"TEME","TLE_LINE1":"1 45411U 20019BD  22149.86346658  .00009856  00000-0  68040-3 0  9990","REV_AT_EPOCH":"12191","EPHEMERIS_TYPE":"0","ARG_OF_PERICENTER":"69.3602","MEAN_MOTION":"15.06357168","CLASSIFICATION_TYPE":"U","MEAN_ELEMENT_THEORY":"SGP4","ECCENTRICITY":"0.00014590","RCS_SIZE":"LARGE","OBJECT_ID":"2020-019BD","DECAY_DATE":null,"MEAN_MOTION_DOT":"0.00009856","LAUNCH_DATE":"2020-03-18","TIME_SYSTEM":"UTC","PERIAPSIS":"546.334"}];
